NORAD_CAT_ID,OBJECT_NAME,OBJECT_TYPE,EPOCH,MEAN_MOTION,ECCENTRICITY,INCLINATION,RA_OF_ASC_NODE,ARG_OF_PERICENTER,MEAN_ANOMALY,BSTAR,MEAN_MOTION_DOT,MEAN_MOTION_DDOT,TLE_LINE0,TLE_LINE1,TLE_LINE2,SEMIMAJOR_AXIS,PERIOD,APOGEE,PERIGEE,DECAYED
56491.0,STARLINK-5842,PAYLOAD,2023-11-16 17:33:20,15.28601628,0.0003669,69.9979,73.6442,280.5583,79.5178,1.1448e-05,1.93e-06,0.0,0 STARLINK-5842,1 56491U 23064AV  23320.73148526  .00000193  00000-0  11448-4 0  9991,2 56491  69.9979  73.6442 0003669 280.5583  79.5178 15.28601628 30141,6858.129,94.204,482.51,477.477,0.0
56491.0,STARLINK-5842,PAYLOAD,2023-11-17 13:58:20,15.28634356,0.0003532,69.9983,71.3981,277.6603,82.417,-0.00024539,-6.973e-05,0.0,0 STARLINK-5842,1 56491U 23064AV  23321.58218011 -.00006973  00000-0 -24539-3 0  9990,2 56491  69.9983  71.3981 0003532 277.6603  82.4170 15.28634356 29910,6858.031,94.202,482.318,477.474,0.0
56491.0,STARLINK-5842,PAYLOAD,2023-11-17 17:06:47,15.28645855,0.0003713,69.9985,71.0525,277.5505,82.5248,-0.00032321,-9.145e-05,0.0,0 STARLINK-5842,1 56491U 23064AV  23321.71305189 -.00009145  00000-0 -32321-3 0  9990,2 56491  69.9985  71.0525 0003713 277.5505  82.5248 15.28645855 30290,6857.996,94.201,482.408,477.315,0.0
56491.0,STARLINK-5842,PAYLOAD,2023-11-18 10:23:21,15.2860157,0.0003474,69.9982,69.1499,273.7493,86.3285,8.3235e-06,1.06e-06,0.0,0 STARLINK-5842,1 56491U 23064AV  23322.43288375  .00000106  00000-0  83235-5 0  9995,2 56491  69.9982  69.1499 0003474 273.7493  86.3285 15.28601570 30405,6858.129,94.204,482.376,477.611,0.0
56491.0,STARLINK-5842,PAYLOAD,2023-11-18 13:31:49,15.28600034,0.0003486,69.9982,68.8041,273.7911,86.2865,8.2036e-07,-1.04e-06,0.0,0 STARLINK-5842,1 56491U 23064AV  23322.56376204 -.00000104  00000-0  82036-6 0  9996,2 56491  69.9982  68.8041 0003486 273.7911  86.2865 15.28600034 30061,6858.133,94.204,482.389,477.608,0.0
56491.0,STARLINK-5842,PAYLOAD,2023-11-19 11:31:14,15.28458582,0.000482,69.9984,66.3843,296.2002,63.8676,-0.00064763,-0.00018075,0.0,0 STARLINK-5842,1 56491U 23064AV  23323.48003088 -.00018075  00000-0 -64763-3 0  9996,2 56491  69.9984  66.3843 0004820 296.2002  63.8676 15.28458582 30565,6858.557,94.213,483.727,477.116,0.0
56491.0,STARLINK-5842,PAYLOAD,2023-11-19 13:05:34,15.28378997,0.000346,69.9985,66.2114,270.4342,89.6436,-0.0010204,-0.00028294,0.0,0 STARLINK-5842,1 56491U 23064AV  23323.54554290 -.00028294  00000-0 -10204-2 0  9993,2 56491  69.9985  66.2114 0003460 270.4342  89.6436 15.28378997 30219,6858.795,94.217,483.033,478.287,0.0
56491.0,STARLINK-5842,PAYLOAD,2023-11-19 16:14:18,15.2819084,0.0003223,69.9983,65.8661,275.775,84.3057,-0.0018877,-0.00051774,0.0,0 STARLINK-5842,1 56491U 23064AV  23323.67660309 -.00051774  00000-0 -18877-2 0  9999,2 56491  69.9983  65.8661 0003223 275.7750  84.3057 15.28190840 30598,6859.358,94.229,483.433,479.012,0.0
56491.0,STARLINK-5842,PAYLOAD,2023-11-20 00:05:51,15.27975183,0.0003599,69.9986,65.0023,263.6445,96.4319,-0.0027344,-0.0007423,0.0,0 STARLINK-5842,1 56491U 23064AV  23324.00407319 -.00074230  00000-0 -27344-2 0  9998,2 56491  69.9986  65.0023 0003599 263.6445  96.4319 15.27975183 30649,6860.003,94.242,484.337,479.399,0.0
56491.0,STARLINK-5842,PAYLOAD,2023-11-20 09:32:14,15.27425653,0.0001986,69.9997,63.9693,231.6969,128.4026,-0.0053116,-0.0014042,0.0,0 STARLINK-5842,1 56491U 23064AV  23324.39738588 -.00140420  00000-0 -53116-2 0  9996,2 56491  69.9997  63.9693 0001986 231.6969 128.4026 15.27425653 30705,6861.648,94.276,484.876,482.151,0.0
56491.0,STARLINK-5842,PAYLOAD,2023-11-20 14:15:25,15.27171783,0.0003123,69.999,63.4508,271.9743,88.1073,-0.0060176,-0.00157509,0.0,0 STARLINK-5842,1 56491U 23064AV  23324.59404001 -.00157509  00000-0 -60176-2 0  9998,2 56491  69.9990  63.4508 0003123 271.9743  88.1073 15.27171783 30379,6862.409,94.292,486.417,482.131,0.0
56491.0,STARLINK-5842,PAYLOAD,2023-11-20 22:00:00,15.25428738,0.0003338,70.0004,62.5985,274.2815,60.622,-0.041447,-0.00970359,0.0,0 STARLINK-5842,1 56491U 23064AV  23324.91667824 -.00970359  00000-0 -41447-1 0  9993,2 56491  70.0004  62.5985 0003338 274.2815  60.6220 15.25428738 30788,6867.635,94.4,491.793,487.208,0.0
56491.0,STARLINK-5842,PAYLOAD,2023-11-21 14:00:01,15.24092472,0.0003333,70.0007,60.8477,276.665,116.5808,-0.040211,-0.00908996,0.0,0 STARLINK-5842,1 56491U 23064AV  23325.58334491 -.00908996  00000-0 -40211-1 0  9994,2 56491  70.0007  60.8477 0003333 276.6650 116.5808 15.24092472 30881,6871.649,94.482,495.804,491.224,0.0
56491.0,STARLINK-5842,PAYLOAD,2023-11-22 00:00:00,15.23279942,0.0003161,70.0008,59.7551,274.5742,243.5427,-0.041986,-0.00925121,0.0,0 STARLINK-5842,1 56491U 23064AV  23326.00001157 -.00925121  00000-0 -41986-1 0  9991,2 56491  70.0008  59.7551 0003161 274.5742 243.5427 15.23279942  5877,6874.092,94.533,498.13,493.784,0.0
56491.0,STARLINK-5842,PAYLOAD,2023-11-22 06:00:00,15.22793011,0.0003251,70.001,59.1004,273.0754,175.3657,-0.041358,-0.00900077,0.0,0 STARLINK-5842,1 56491U 23064AV  23326.25001157 -.00900077  00000-0 -41358-1 0  9994,2 56491  70.0010  59.1004 0003251 273.0754 175.3657 15.22793011 30988,6875.558,94.563,499.658,495.187,0.0
56491.0,STARLINK-5842,PAYLOAD,2023-11-22 14:00:01,15.22132604,0.000328,70.0009,58.2281,278.867,196.0131,-0.042303,-0.00902628,0.0,0 STARLINK-5842,1 56491U 23064AV  23326.58334491 -.00902628  00000-0 -42303-1 0  9995,2 56491  70.0009  58.2281 0003280 278.8670 196.0131 15.22132604  5978,6877.546,94.604,501.667,497.155,0.0
56491.0,STARLINK-5842,PAYLOAD,2023-11-22 22:00:00,15.21510351,0.000314,70.0008,57.3566,277.8799,222.6387,-0.046165,-0.0096229,0.0,0 STARLINK-5842,1 56491U 23064AV  23326.91667824 -.00962290  00000-0 -46165-1 0  9992,2 56491  70.0008  57.3566 0003140 277.8799 222.6387 15.21510351 31087,6879.421,94.643,503.446,499.126,0.0
56491.0,STARLINK-5842,PAYLOAD,2023-11-23 00:00:00,15.21318982,0.0003201,70.0011,57.1388,274.0978,322.7197,-0.044115,-0.009178,0.0,0 STARLINK-5842,1 56491U 23064AV  23327.00001157 -.00917800  00000-0 -44115-1 0  9994,2 56491  70.0011  57.1388 0003201 274.0978 322.7197 15.21318982  6008,6879.998,94.655,504.065,499.661,0.0
56491.0,STARLINK-5842,PAYLOAD,2023-11-23 14:00:01,15.20170773,0.0003228,70.0011,55.6164,279.2883,270.1862,-0.044333,-0.00893605,0.0,0 STARLINK-5842,1 56491U 23064AV  23327.58334491 -.00893605  00000-0 -44333-1 0  9995,2 56491  70.0011  55.6164 0003228 279.2883 270.1862 15.20170773 31189,6883.462,94.726,507.549,503.105,0.0
56491.0,STARLINK-5842,PAYLOAD,2023-11-23 22:00:00,15.195521,0.0003165,70.0011,54.7474,277.2416,295.5237,-0.048816,-0.00960929,0.0,0 STARLINK-5842,1 56491U 23064AV  23327.91667824 -.00960929  00000-0 -48816-1 0  9995,2 56491  70.0011  54.7474 0003165 277.2416 295.5237 15.19552100  5895,6885.33,94.765,509.374,505.016,0.0
56491.0,STARLINK-5842,PAYLOAD,2023-11-24 06:00:02,15.18889507,0.00032,70.0016,53.8796,272.8971,322.4422,-0.047249,-0.009158,0.0,0 STARLINK-5842,1 56491U 23064AV  23328.25002315 -.00915800  00000-0 -47249-1 0  9998,2 56491  70.0016  53.8796 0003200 272.8971 322.4422 15.18889507 31285,6887.333,94.806,511.402,506.994,0.0
56491.0,STARLINK-5842,PAYLOAD,2023-11-24 14:00:01,15.18211641,0.0003277,70.0015,53.0125,279.4016,337.6256,-0.046655,-0.00888736,0.0,0 STARLINK-5842,1 56491U 23064AV  23328.58334491 -.00888736  00000-0 -46655-1 0  9994,2 56491  70.0015  53.0125 0003277 279.4016 337.6256 15.18211641  6002,6889.382,94.848,513.505,508.99,0.0
56491.0,STARLINK-5842,PAYLOAD,2023-11-24 22:00:00,15.17592242,0.0003215,70.0014,52.1463,277.4104,0.5617,-0.051453,-0.0095724,0.0,0 STARLINK-5842,1 56491U 23064AV  23328.91667824 -.00957240  00000-0 -51453-1 0  9999,2 56491  70.0014  52.1463 0003215 277.4104   0.5617 15.17592242 31388,6891.257,94.887,515.337,510.906,0.0
56491.0,STARLINK-5842,PAYLOAD,2023-11-25 14:00:01,15.1625617,0.0003342,70.0017,50.4167,277.0421,40.4958,-0.049407,-0.00889668,0.0,0 STARLINK-5842,1 56491U 23064AV  23329.58334491 -.00889668  00000-0 -49407-1 0  9998,2 56491  70.0017  50.4167 0003342 277.0421  40.4958 15.16256170  6000,6895.305,94.971,519.474,514.865,0.0
56491.0,STARLINK-5842,PAYLOAD,2023-11-26 00:00:00,15.15434329,0.0003273,70.0017,49.3373,275.4141,155.2629,-0.050709,-0.00891789,0.0,0 STARLINK-5842,1 56491U 23064AV  23330.00001157 -.00891789  00000-0 -50709-1 0  9991,2 56491  70.0017  49.3373 0003273 275.4141 155.2629 15.15434329  6070,6897.797,95.022,521.92,517.405,0.0
56491.0,STARLINK-5842,PAYLOAD,2023-11-26 06:00:00,15.1498084,0.0003329,70.0018,48.6906,272.4153,81.5355,-0.053472,-0.00925697,0.0,0 STARLINK-5842,1 56491U 23064AV  23330.25001157 -.00925697  00000-0 -53472-1 0  9994,2 56491  70.0018  48.6906 0003329 272.4153  81.5355 15.14980840 31592,6899.174,95.051,523.335,518.742,0.0
56491.0,STARLINK-5842,PAYLOAD,2023-11-26 14:00:01,15.14299797,0.000337,70.0016,47.8287,279.1598,91.8487,-0.052226,-0.00889567,0.0,0 STARLINK-5842,1 56491U 23064AV  23330.58334491 -.00889567  00000-0 -52226-1 0  9991,2 56491  70.0016  47.8287 0003370 279.1598  91.8487 15.14299797  5939,6901.242,95.093,525.433,520.781,0.0
56491.0,STARLINK-5842,PAYLOAD,2023-11-26 22:00:00,15.13670369,0.0003298,70.0014,46.9676,277.0322,110.2322,-0.056748,-0.00945099,0.0,0 STARLINK-5842,1 56491U 23064AV  23330.91667824 -.00945099  00000-0 -56748-1 0  9993,2 56491  70.0014  46.9676 0003298 277.0322 110.2322 15.13670369  5986,6903.155,95.133,527.297,522.744,0.0
56491.0,STARLINK-5842,PAYLOAD,2023-11-27 06:00:00,15.13026815,0.000329,70.0017,46.1077,274.6083,128.1206,-0.056814,-0.00930378,0.0,0 STARLINK-5842,1 56491U 23064AV  23331.25001157 -.00930378  00000-0 -56814-1 0  9990,2 56491  70.0017  46.1077 0003290 274.6083 128.1206 15.13026815 31748,6905.112,95.173,529.249,524.706,0.0
56491.0,STARLINK-5842,PAYLOAD,2023-11-27 14:00:01,15.12342367,0.0003352,70.0014,45.2484,277.1527,140.2858,-0.055014,-0.00887049,0.0,0 STARLINK-5842,1 56491U 23064AV  23331.58334491 -.00887049  00000-0 -55014-1 0  9993,2 56491  70.0014  45.2484 0003352 277.1527 140.2858 15.12342367  5995,6907.196,95.217,531.376,526.745,0.0
